$$SOE
2459580.500000000, A.D. 2022-Jan-01 00:00:00.0000, 3.603952067795585E+08, -2.712927079089462E+07, 9.663504549502958E+06,
2459587.500000000, A.D. 2022-Jan-08 00:00:00.0000, 3.621197925414187E+08, -1.596634945002055E+07, 9.601397645143587E+06,
2459594.500000000, A.D. 2022-Jan-15 00:00:00.0000, 3.634758116569212E+08, -4.787301917603201E+06, 9.529500460182540E+06,
2459601.500000000, A.D. 2022-Jan-22 00:00:00.0000, 3.644650291491668E+08, 6.396447151014363E+06, 9.447968623097131E+06,
2459608.500000000, A.D. 2022-Jan-29 00:00:00.0000, 3.650894991413735E+08, 1.757366285091366E+07, 9.356963643621661E+06,
2459615.500000000, A.D. 2022-Feb-05 00:00:00.0000, 3.653515507846342E+08, 2.873330123032833E+07, 9.256652728404546E+06,
2459622.500000000, A.D. 2022-Feb-12 00:00:00.0000, 3.652537768519470E+08, 3.986450890687317E+07, 9.147208329448888E+06,
2459629.500000000, A.D. 2022-Feb-19 00:00:00.0000, 3.647990236735933E+08, 5.095662351708579E+07, 9.028807739782564E+06,
2459636.500000000, A.D. 2022-Feb-26 00:00:00.0000, 3.639903811032444E+08, 6.199917432415245E+07, 8.901632797142208E+06,
2459643.500000000, A.D. 2022-Mar-05 00:00:00.0000, 3.628311726728160E+08, 7.298188241142307E+07, 8.765869630048860E+06,
2459650.500000000, A.D. 2022-Mar-12 00:00:00.0000, 3.613249461541923E+08, 8.389466043797013E+07, 8.621708419810470E+06,
2459657.500000000, A.D. 2022-Mar-19 00:00:00.0000, 3.594754645932614E+08, 9.472761202399750E+07, 8.469343173420820E+06,
2459664.500000000, A.D. 2022-Mar-26 00:00:00.0000, 3.572866978316911E+08, 1.054710307978504E+08, 8.308971504030026E+06,
2459671.500000000, A.D. 2022-Apr-02 00:00:00.0000, 3.547628145765520E+08, 1.161153990843869E+08, 8.140794407464497E+06,
2459678.500000000, A.D. 2022-Apr-09 00:00:00.0000, 3.519081752816451E+08, 1.266513862721914E+08, 7.965016009424031E+06,
2459685.500000000, A.D. 2022-Apr-16 00:00:00.0000, 3.487273261862133E+08, 1.370698475423548E+08, 7.781843302861281E+06,
2459692.500000000, A.D. 2022-Apr-23 00:00:00.0000, 3.452249932259302E+08, 1.473618240721125E+08, 7.591486079608507E+06,
2459699.500000000, A.D. 2022-Apr-30 00:00:00.0000, 3.414060739358439E+08, 1.575185425002306E+08, 7.394157044473715E+06,
2459706.500000000, A.D. 2022-May-07 00:00:00.0000, 3.372756304021938E+08, 1.675314117057920E+08, 7.190071669132203E+06,
2459713.500000000, A.D. 2022-May-14 00:00:00.0000, 3.328388846383000E+08, 1.773920199590532E+08, 6.979447905450590E+06,
2459720.500000000, A.D. 2022-May-21 00:00:00.0000, 3.281012143377386E+08, 1.870921332254804E+08, 6.762506005909190E+06,
2459727.500000000, A.D. 2022-May-28 00:00:00.0000, 3.230681485128927E+08, 1.966236936862014E+08, 6.539468416321635E+06,
2459734.500000000, A.D. 2022-Jun-04 00:00:00.0000, 3.177453632834954E+08, 2.059788181824287E+08, 6.310559689469755E+06,
2459741.500000000, A.D. 2022-Jun-11 00:00:00.0000, 3.121386779473340E+08, 2.151497966051880E+08, 6.076006406163380E+06,
2459748.500000000, A.D. 2022-Jun-18 00:00:00.0000, 3.062540513595508E+08, 2.241290902617662E+08, 5.836037100892887E+06,
2459755.500000000, A.D. 2022-Jun-25 00:00:00.0000, 3.000975786382335E+08, 2.329093302026520E+08, 5.590882186310410E+06,
2459762.500000000, A.D. 2022-Jul-02 00:00:00.0000, 2.936754883191974E+08, 2.414833154585305E+08, 5.340773858454004E+06,
2459769.500000000, A.D. 2022-Jul-09 00:00:00.0000, 2.869941403394147E+08, 2.498440113767994E+08, 5.085945960695013E+06,
2459776.500000000, A.D. 2022-Jul-16 00:00:00.0000, 2.800600247801302E+08, 2.579845491476884E+08, 4.826633898774356E+06,
2459783.500000000, A.D. 2022-Jul-23 00:00:00.0000, 2.728797591490741E+08, 2.658982266041369E+08, 4.563074814138353E+06,
2459790.500000000, A.D. 2022-Jul-30 00:00:00.0000, 2.654600842661530E+08, 2.735785069587351E+08, 4.295507734334543E+06,
2459797.500000000, A.D. 2022-Aug-06 00:00:00.0000, 2.578078623422096E+08, 2.810190161445439E+08, 4.024173423598856E+06,
2459804.500000000, A.D. 2022-Aug-13 00:00:00.0000, 2.499300764174550E+08, 2.882135415273455E+08, 3.749314234184682E+06,
2459811.500000000, A.D. 2022-Aug-20 00:00:00.0000, 2.418338295799396E+08, 2.951560314985666E+08, 3.471174061397091E+06,
2459818.500000000, A.D. 2022-Aug-27 00:00:00.0000, 2.335263440230152E+08, 3.018405952332704E+08, 3.189998336580977E+06,
2459825.500000000, A.D. 2022-Sep-03 00:00:00.0000, 2.250149601790802E+08, 3.082615025115511E+08, 2.906034025860757E+06,
2459832.500000000, A.D. 2022-Sep-10 00:00:00.0000, 2.163071360072614E+08, 3.144131836354431E+08, 2.619529627810419E+06,
2459839.500000000, A.D. 2022-Sep-17 00:00:00.0000, 2.074104464510208E+08, 3.202902294480041E+08, 2.330735166706845E+06,
2459846.500000000, A.D. 2022-Sep-24 00:00:00.0000, 1.983325831123741E+08, 3.258873914125743E+08, 2.039902171181649E+06,
2459853.500000000, A.D. 2022-Oct-01 00:00:00.0000, 1.890813543690789E+08, 3.311995817396553E+08, 1.747283613942578E+06,
2459860.500000000, A.D. 2022-Oct-08 00:00:00.0000, 1.796646863297178E+08, 3.362218740942394E+08, 1.453133817220286E+06,
2459867.500000000, A.D. 2022-Oct-15 00:00:00.0000, 1.700906236836821E+08, 3.409495060908455E+08, 1.157708506371513E+06,
2459874.500000000, A.D. 2022-Oct-22 00:00:00.0000, 1.603673282480757E+08, 3.453778818962075E+08, 8.612650735088289E+05,
2459881.500000000, A.D. 2022-Oct-29 00:00:00.0000, 1.505030776917541E+08, 3.495025723586316E+08, 5.640626100742817E+05,
2459888.500000000, A.D. 2022-Nov-05 00:00:00.0000, 1.405062665261762E+08, 3.533193154196691E+08, 2.663617388087958E+05,
2459895.500000000, A.D. 2022-Nov-12 00:00:00.0000, 1.303854073861555E+08, 3.568240180821374E+08, -3.157547219030559E+04,
2459902.500000000, A.D. 2022-Nov-19 00:00:00.0000, 1.201491318657600E+08, 3.600127589873980E+08, -3.294855259170085E+05,
2459909.500000000, A.D. 2022-Nov-26 00:00:00.0000, 1.098061911566211E+08, 3.628817912127374E+08, -6.271035005020499E+05,
2459916.500000000, A.D. 2022-Dec-03 00:00:00.0000, 9.936545663959149E+07, 3.654275452846030E+08, -9.241630576215237E+05,
2459923.500000000, A.D. 2022-Dec-10 00:00:00.0000, 8.883592045891711E+07, 3.676466324324008E+08, -1.220396458478138E+06,
2459930.500000000, A.D. 2022-Dec-17 00:00:00.0000, 7.822669608525439E+07, 3.695358480632315E+08, -1.515534592156798E+06,
2459937.500000000, A.D. 2022-Dec-24 00:00:00.0000, 6.754701895628110E+07, 3.710921753976737E+08, -1.809307032186911E+06,
2459944.500000000, A.D. 2022-Dec-31 00:00:00.0000, 5.680624753016107E+07, 3.723127893822262E+08, -2.101442145711869E+06,
2459951.500000000, A.D. 2023-Jan-07 00:00:00.0000, 4.601386485243738E+07, 3.731950618524147E+08, -2.391667188458964E+06,
2459958.500000000, A.D. 2023-Jan-14 00:00:00.0000, 3.517947865029803E+07, 3.737365684541439E+08, -2.679708165444076E+06,
2459965.500000000, A.D. 2023-Jan-21 00:00:00.0000, 2.431281928771316E+07, 3.739350941535698E+08, -2.965289657822967E+06,
2459972.500000000, A.D. 2023-Jan-28 00:00:00.0000, 1.342373922184918E+07, 3.737886371487531E+08, -3.248134968266159E+06,
2459979.500000000, A.D. 2023-Feb-04 00:00:00.0000, 2.522213730003523E+06, 3.732954142240626E+08, -3.527966319458067E+06,
2459986.500000000, A.D. 2023-Feb-11 00:00:00.0000, -8.381658910899162E+06, 3.724538673580855E+08, -3.804504957832322E+06,
2459993.500000000, A.D. 2023-Feb-18 00:00:00.0000, -1.927765788328300E+07, 3.712626707640544E+08, -4.077471224533275E+06,
2460000.500000000, A.D. 2023-Feb-25 00:00:00.0000, -3.015544069363699E+07, 3.697207382042620E+08, -4.346584631509081E+06,
2460007.500000000, A.D. 2023-Mar-04 00:00:00.0000, -4.100454437226703E+07, 3.678272306005906E+08, -4.611563951277465E+06,
2460014.500000000, A.D. 2023-Mar-11 00:00:00.0000, -5.181438701222682E+07, 3.655815639444361E+08, -4.872127323751882E+06,
2460021.500000000, A.D. 2023-Mar-18 00:00:00.0000, -6.257426963390698E+07, 3.629834174581732E+08, -5.127992389403477E+06,
2460028.500000000, A.D. 2023-Mar-25 00:00:00.0000, -7.327337820580891E+07, 3.600327419600589E+08, -5.378876472228870E+06,
2460035.500000000, A.D. 2023-Apr-01 00:00:00.0000, -8.390078543177131E+07, 3.567297688209574E+08, -5.624496820169121E+06,
2460042.500000000, A.D. 2023-Apr-08 00:00:00.0000, -9.444545295759670E+07, 3.530750207294539E+08, -5.864570747191772E+06,
2460049.500000000, A.D. 2023-Apr-15 00:00:00.0000, -1.048962363732510E+08, 3.490693231470461E+08, -6.098815553737983E+06,
2460056.500000000, A.D. 2023-Apr-22 00:00:00.0000, -1.152418912455426E+08, 3.447138133804259E+08, -6.326948640423313E+06,
2460063.500000000, A.D. 2023-Apr-29 00:00:00.0000, -1.254710775020551E+08, 3.400099495093426E+08, -6.548687881736726E+06,
2460070.500000000, A.D. 2023-May-06 00:00:00.0000, -1.355723639785484E+08, 3.349595209478539E+08, -6.763751954870254E+06,
2460077.500000000, A.D. 2023-May-13 00:00:00.0000, -1.455342341514245E+08, 3.295646597328781E+08, -6.971860609198734E+06,
2460084.500000000, A.D. 2023-May-20 00:00:00.0000, -1.553450928672608E+08, 3.238278520261711E+08, -7.172734939535186E+06,
2460091.500000000, A.D. 2023-May-27 00:00:00.0000, -1.649932739247621E+08, 3.177519497714021E+08, -7.366097684671536E+06,
2460098.500000000, A.D. 2023-Jun-03 00:00:00.0000, -1.744670485025175E+08, 3.113401824981865E+08, -7.551673555623874E+06,
2460105.500000000, A.D. 2023-Jun-10 00:00:00.0000, -1.837546344613201E+08, 3.045961692202139E+08, -7.729189598083258E+06,
2460112.500000000, A.D. 2023-Jun-17 00:00:00.0000, -1.928442064854012E+08, 2.975239303231187E+08, -7.898375603278697E+06,
2460119.500000000, A.D. 2023-Jun-24 00:00:00.0000, -2.017239067962589E+08, 2.901278994477161E+08, -8.058964593083337E+06,
2460126.500000000, A.D. 2023-Jul-01 00:00:00.0000, -2.103818562401553E+08, 2.824129361406034E+08, -8.210693335854068E+06,
2460133.500000000, A.D. 2023-Jul-08 00:00:00.0000, -2.188061674788890E+08, 2.743843400340171E+08, -8.353302673535049E+06,
2460140.500000000, A.D. 2023-Jul-15 00:00:00.0000, -2.269849616120713E+08, 2.660478636613362E+08, -8.486537775634900E+06,
2460147.500000000, A.D. 2023-Jul-22 00:00:00.0000, -2.349063847521363E+08, 2.574097227945887E+08, -8.610148727431238E+06,
$$EOE